[
    {
        "OBJECT_NAME": "STARLINK-31841",
        "OBJECT_ID": "2024-090C",
        "EPOCH": "2025-12-05T21:41:06.165312",
        "MEAN_MOTION": 16.12968915,
        "ECCENTRICITY": 0.00150791,
        "INCLINATION": 42.9724,
        "RA_OF_ASC_NODE": 285.0035,
        "ARG_OF_PERICENTER": 162.3077,
        "MEAN_ANOMALY": 197.8334,
        "EPHEMERIS_TYPE": 0,
        "CLASSIFICATION_TYPE": "U",
        "NORAD_CAT_ID": 59732,
        "ELEMENT_SET_NO": 999,
        "REV_AT_EPOCH": 8987,
        "BSTAR": 0.0017701194,
        "MEAN_MOTION_DOT": 0.02034863,
        "MEAN_MOTION_DDOT": 0.0039203006
    },
    {
        "OBJECT_NAME": "PICO-02B022",
        "OBJECT_ID": "2024-149DH",
        "EPOCH": "2025-12-06T15:11:14.153280",
        "MEAN_MOTION": 15.98632573,
        "ECCENTRICITY": 0.00102527,
        "INCLINATION": 97.6725,
        "RA_OF_ASC_NODE": 72.605,
        "ARG_OF_PERICENTER": 308.1314,
        "MEAN_ANOMALY": 51.9038,
        "EPHEMERIS_TYPE": 0,
        "CLASSIFICATION_TYPE": "U",
        "NORAD_CAT_ID": 60571,
        "ELEMENT_SET_NO": 999,
        "REV_AT_EPOCH": 7238,
        "BSTAR": 0.0069054145,
        "MEAN_MOTION_DOT": 0.02891468,
        "MEAN_MOTION_DDOT": 0.0084218918
    },
    {
        "OBJECT_NAME": "CZ-6A DEB",
        "OBJECT_ID": "2024-140RS",
        "EPOCH": "2025-12-06T20:58:37.718688",
        "MEAN_MOTION": 16.16307363,
        "ECCENTRICITY": 0.0014612,
        "INCLINATION": 89.0295,
        "RA_OF_ASC_NODE": 291.9274,
        "ARG_OF_PERICENTER": 75.7994,
        "MEAN_ANOMALY": 284.4925,
        "EPHEMERIS_TYPE": 0,
        "CLASSIFICATION_TYPE": "U",
        "NORAD_CAT_ID": 61172,
        "ELEMENT_SET_NO": 999,
        "REV_AT_EPOCH": 7153,
        "BSTAR": 0.0050714644,
        "MEAN_MOTION_DOT": 0.07358479,
        "MEAN_MOTION_DDOT": -1.078696e-06
    },
    {
        "OBJECT_NAME": "STARLINK-11336 [DTC]",
        "OBJECT_ID": "2024-195M",
        "EPOCH": "2025-12-05T22:44:10.762656",
        "MEAN_MOTION": 16.01620064,
        "ECCENTRICITY": 0.00106136,
        "INCLINATION": 53.1413,
        "RA_OF_ASC_NODE": 117.0807,
        "ARG_OF_PERICENTER": 306.3659,
        "MEAN_ANOMALY": 53.6392,
        "EPHEMERIS_TYPE": 0,
        "CLASSIFICATION_TYPE": "U",
        "NORAD_CAT_ID": 61698,
        "ELEMENT_SET_NO": 999,
        "REV_AT_EPOCH": 6446,
        "BSTAR": 0.0021049813,
        "MEAN_MOTION_DOT": 0.01206871,
        "MEAN_MOTION_DDOT": 0.0007846933
    },
    {
        "OBJECT_NAME": "HYPE",
        "OBJECT_ID": "2025-009CG",
        "EPOCH": "2025-12-06T18:20:41.962848",
        "MEAN_MOTION": 16.06756989,
        "ECCENTRICITY": 0.00090902,
        "INCLINATION": 97.4038,
        "RA_OF_ASC_NODE": 67.2174,
        "ARG_OF_PERICENTER": 303.5194,
        "MEAN_ANOMALY": 56.5219,
        "EPHEMERIS_TYPE": 0,
        "CLASSIFICATION_TYPE": "U",
        "NORAD_CAT_ID": 62687,
        "ELEMENT_SET_NO": 999,
        "REV_AT_EPOCH": 5004,
        "BSTAR": 0.0041273736,
        "MEAN_MOTION_DOT": 0.02712333,
        "MEAN_MOTION_DDOT": 0.0092151442
    },
    {
        "OBJECT_NAME": "CZ-2F R/B",
        "OBJECT_ID": "2025-272B",
        "EPOCH": "2025-12-06T20:55:41.021184",
        "MEAN_MOTION": 16.34691308,
        "ECCENTRICITY": 0.0038093,
        "INCLINATION": 41.4537,
        "RA_OF_ASC_NODE": 46.5611,
        "ARG_OF_PERICENTER": 222.6714,
        "MEAN_ANOMALY": 137.119,
        "EPHEMERIS_TYPE": 0,
        "CLASSIFICATION_TYPE": "U",
        "NORAD_CAT_ID": 66646,
        "ELEMENT_SET_NO": 999,
        "REV_AT_EPOCH": 189,
        "BSTAR": 0.00045837,
        "MEAN_MOTION_DOT": 0.04803871,
        "MEAN_MOTION_DDOT": 7.8554e-06
    }
]