STARLINK-31841          
1 59732U 24090C   25339.90354358  .02034863  39203-2  17701-2 0  9993
2 59732  42.9724 285.0035 0015079 162.3077 197.8334 16.12968915 89872
PICO-02B022             
1 60571U 24149DH  25340.63280270  .02891468  84219-2  69054-2 0  9991
2 60571  97.6725  72.6050 0010252 308.1314  51.9038 15.98632573 72382
CZ-6A DEB               
1 61172U 24140RS  25340.87404767  .07358479 -10787-5  50715-2 0  9997
2 61172  89.0295 291.9274 0014612  75.7994 284.4925 16.16307363 71537
STARLINK-11336 [DTC]    
1 61698U 24195M   25339.94734679  .01206871  78469-3  21050-2 0  9994
2 61698  53.1413 117.0807 0010613 306.3659  53.6392 16.01620064 64460
HYPE                    
1 62687U 25009CG  25340.76437457  .02712333  92151-2  41274-2 0  9993
2 62687  97.4038  67.2174 0009090 303.5194  56.5219 16.06756989 50046
CZ-2F R/B               
1 66646U 25272B   25340.87200256  .04803871  78554-5  45837-3 0  9995
2 66646  41.4537  46.5611 0038093 222.6714 137.1190 16.34691308  1895
